[{"OBJECT_NAME":"GSAT0215 (GALILEO 19)","OBJECT_ID":"2017-079A","EPOCH":"2026-04-23T11:07:24.507840","MEAN_MOTION":1.70474699,"ECCENTRICITY":0.00014285,"INCLINATION":55.0907,"RA_OF_ASC_NODE":223.0118,"ARG_OF_PERICENTER":264.4741,"MEAN_ANOMALY":95.5096,"EPHEMERIS_TYPE":0,"CLASSIFICATION_TYPE":"U","NORAD_CAT_ID":43055,"ELEMENT_SET_NO":999,"REV_AT_EPOCH":5205,"BSTAR":0,"MEAN_MOTION_DOT":-2.2e-7,"MEAN_MOTION_DDOT":0},{"OBJECT_NAME":"GSAT0216 (GALILEO 20)","OBJECT_ID":"2017-079B","EPOCH":"2026-04-24T22:16:03.139968","MEAN_MOTION":1.70474805,"ECCENTRICITY":0.0002775,"INCLINATION":55.0895,"RA_OF_ASC_NODE":222.9715,"ARG_OF_PERICENTER":284.1808,"MEAN_ANOMALY":75.7828,"EPHEMERIS_TYPE":0,"CLASSIFICATION_TYPE":"U","NORAD_CAT_ID":43056,"ELEMENT_SET_NO":999,"REV_AT_EPOCH":5209,"BSTAR":0,"MEAN_MOTION_DOT":-3.4e-7,"MEAN_MOTION_DDOT":0},{"OBJECT_NAME":"GSAT0217 (GALILEO 21)","OBJECT_ID":"2017-079C","EPOCH":"2026-04-25T03:33:58.024800","MEAN_MOTION":1.70474762,"ECCENTRICITY":0.0002225,"INCLINATION":55.0882,"RA_OF_ASC_NODE":222.9635,"ARG_OF_PERICENTER":307.452,"MEAN_ANOMALY":52.5215,"EPHEMERIS_TYPE":0,"CLASSIFICATION_TYPE":"U","NORAD_CAT_ID":43057,"ELEMENT_SET_NO":999,"REV_AT_EPOCH":5208,"BSTAR":0,"MEAN_MOTION_DOT":-3.5e-7,"MEAN_MOTION_DDOT":0},{"OBJECT_NAME":"GSAT0218 (GALILEO 22)","OBJECT_ID":"2017-079D","EPOCH":"2026-04-25T22:55:31.247328","MEAN_MOTION":1.70474761,"ECCENTRICITY":0.00031835,"INCLINATION":55.0879,"RA_OF_ASC_NODE":222.9388,"ARG_OF_PERICENTER":277.2874,"MEAN_ANOMALY":82.6679,"EPHEMERIS_TYPE":0,"CLASSIFICATION_TYPE":"U","NORAD_CAT_ID":43058,"ELEMENT_SET_NO":999,"REV_AT_EPOCH":5212,"BSTAR":0,"MEAN_MOTION_DOT":-3.9e-7,"MEAN_MOTION_DDOT":0},{"OBJECT_NAME":"GSAT0221 (GALILEO 25)","OBJECT_ID":"2018-060A","EPOCH":"2026-04-24T02:22:56.871840","MEAN_MOTION":1.70475641,"ECCENTRICITY":0.00038477,"INCLINATION":57.1855,"RA_OF_ASC_NODE":343.2419,"ARG_OF_PERICENTER":321.5085,"MEAN_ANOMALY":38.5036,"EPHEMERIS_TYPE":0,"CLASSIFICATION_TYPE":"U","NORAD_CAT_ID":43564,"ELEMENT_SET_NO":999,"REV_AT_EPOCH":4824,"BSTAR":0,"MEAN_MOTION_DOT":-8.8e-7,"MEAN_MOTION_DDOT":0},{"OBJECT_NAME":"GSAT0222 (GALILEO 26)","OBJECT_ID":"2018-060B","EPOCH":"2026-04-25T11:48:29.038464","MEAN_MOTION":1.70475419,"ECCENTRICITY":0.00024131,"INCLINATION":57.1892,"RA_OF_ASC_NODE":343.2075,"ARG_OF_PERICENTER":289.5902,"MEAN_ANOMALY":70.4237,"EPHEMERIS_TYPE":0,"CLASSIFICATION_TYPE":"U","NORAD_CAT_ID":43565,"ELEMENT_SET_NO":999,"REV_AT_EPOCH":4831,"BSTAR":0,"MEAN_MOTION_DOT":-9.0e-7,"MEAN_MOTION_DDOT":0},{"OBJECT_NAME":"GSAT0219 (GALILEO 23)","OBJECT_ID":"2018-060C","EPOCH":"2026-04-23T22:52:39.159264","MEAN_MOTION":1.70475588,"ECCENTRICITY":0.00033517,"INCLINATION":57.1884,"RA_OF_ASC_NODE":343.2507,"ARG_OF_PERICENTER":340.2281,"MEAN_ANOMALY":19.7984,"EPHEMERIS_TYPE":0,"CLASSIFICATION_TYPE":"U","NORAD_CAT_ID":43566,"ELEMENT_SET_NO":999,"REV_AT_EPOCH":4826,"BSTAR":0,"MEAN_MOTION_DOT":-8.8e-7,"MEAN_MOTION_DDOT":0},{"OBJECT_NAME":"GSAT0220 (GALILEO 24)","OBJECT_ID":"2018-060D","EPOCH":"2026-04-24T18:15:44.704512","MEAN_MOTION":1.70475503,"ECCENTRICITY":0.00036445,"INCLINATION":57.1842,"RA_OF_ASC_NODE":343.2275,"ARG_OF_PERICENTER":44.9018,"MEAN_ANOMALY":315.1672,"EPHEMERIS_TYPE":0,"CLASSIFICATION_TYPE":"U","NORAD_CAT_ID":43567,"ELEMENT_SET_NO":999,"REV_AT_EPOCH":4826,"BSTAR":0,"MEAN_MOTION_DOT":-8.9e-7,"MEAN_MOTION_DDOT":0},{"OBJECT_NAME":"GSAT0223 (GALILEO 27)","OBJECT_ID":"2021-116A","EPOCH":"2026-04-24T07:45:19.739232","MEAN_MOTION":1.7047548,"ECCENTRICITY":2.341e-5,"INCLINATION":57.1776,"RA_OF_ASC_NODE":343.1299,"ARG_OF_PERICENTER":233.2925,"MEAN_ANOMALY":308.954,"EPHEMERIS_TYPE":0,"CLASSIFICATION_TYPE":"U","NORAD_CAT_ID":49809,"ELEMENT_SET_NO":999,"REV_AT_EPOCH":2726,"BSTAR":0,"MEAN_MOTION_DOT":-8.8e-7,"MEAN_MOTION_DDOT":0},{"OBJECT_NAME":"GSAT0224 (GALILEO 28)","OBJECT_ID":"2021-116B","EPOCH":"2026-04-24T17:19:56.422848","MEAN_MOTION":1.70475626,"ECCENTRICITY":6.258e-5,"INCLINATION":57.1774,"RA_OF_ASC_NODE":343.118,"ARG_OF_PERICENTER":14.3979,"MEAN_ANOMALY":165.3634,"EPHEMERIS_TYPE":0,"CLASSIFICATION_TYPE":"U","NORAD_CAT_ID":49810,"ELEMENT_SET_NO":999,"REV_AT_EPOCH":2729,"BSTAR":0,"MEAN_MOTION_DOT":-8.9e-7,"MEAN_MOTION_DDOT":0},{"OBJECT_NAME":"GSAT0225 (GALILEO 29)","OBJECT_ID":"2024-079A","EPOCH":"2026-04-24T10:41:02.450400","MEAN_MOTION":1.70474282,"ECCENTRICITY":0.00026494,"INCLINATION":55.0858,"RA_OF_ASC_NODE":102.5798,"ARG_OF_PERICENTER":282.4713,"MEAN_ANOMALY":80.4437,"EPHEMERIS_TYPE":0,"CLASSIFICATION_TYPE":"U","NORAD_CAT_ID":59598,"ELEMENT_SET_NO":999,"REV_AT_EPOCH":1240,"BSTAR":0,"MEAN_MOTION_DOT":4.4e-7,"MEAN_MOTION_DDOT":0},{"OBJECT_NAME":"GSAT0227 (GALILEO 30)","OBJECT_ID":"2024-079C","EPOCH":"2026-04-25T05:02:58.067520","MEAN_MOTION":1.70474357,"ECCENTRICITY":0.00012286,"INCLINATION":55.0821,"RA_OF_ASC_NODE":102.5574,"ARG_OF_PERICENTER":13.4677,"MEAN_ANOMALY":346.5305,"EPHEMERIS_TYPE":0,"CLASSIFICATION_TYPE":"U","NORAD_CAT_ID":59600,"ELEMENT_SET_NO":999,"REV_AT_EPOCH":1246,"BSTAR":0,"MEAN_MOTION_DOT":4.4e-7,"MEAN_MOTION_DDOT":0},{"OBJECT_NAME":"GSAT0232 (GALILEO 32)","OBJECT_ID":"2024-167A","EPOCH":"2026-04-25T10:48:14.679360","MEAN_MOTION":1.70474394,"ECCENTRICITY":0.00048449,"INCLINATION":55.2008,"RA_OF_ASC_NODE":222.7596,"ARG_OF_PERICENTER":214.4336,"MEAN_ANOMALY":148.2272,"EPHEMERIS_TYPE":0,"CLASSIFICATION_TYPE":"U","NORAD_CAT_ID":61182,"ELEMENT_SET_NO":999,"REV_AT_EPOCH":998,"BSTAR":0,"MEAN_MOTION_DOT":-3.7e-7,"MEAN_MOTION_DDOT":0},{"OBJECT_NAME":"GSAT0226 (GALILEO 31)","OBJECT_ID":"2024-167B","EPOCH":"2026-04-25T23:23:57.530688","MEAN_MOTION":1.70474391,"ECCENTRICITY":0.00017949,"INCLINATION":55.1993,"RA_OF_ASC_NODE":222.7524,"ARG_OF_PERICENTER":193.7985,"MEAN_ANOMALY":222.2896,"EPHEMERIS_TYPE":0,"CLASSIFICATION_TYPE":"U","NORAD_CAT_ID":61183,"ELEMENT_SET_NO":999,"REV_AT_EPOCH":996,"BSTAR":0,"MEAN_MOTION_DOT":-3.8e-7,"MEAN_MOTION_DDOT":0},{"OBJECT_NAME":"GSAT0233 (GALILEO 33)","OBJECT_ID":"2025-302A","EPOCH":"2026-04-25T10:08:21.573024","MEAN_MOTION":1.70474372,"ECCENTRICITY":0.00021016,"INCLINATION":54.3016,"RA_OF_ASC_NODE":103.6322,"ARG_OF_PERICENTER":244.4795,"MEAN_ANOMALY":289.0042,"EPHEMERIS_TYPE":0,"CLASSIFICATION_TYPE":"U","NORAD_CAT_ID":67160,"ELEMENT_SET_NO":999,"REV_AT_EPOCH":222,"BSTAR":0,"MEAN_MOTION_DOT":4.4e-7,"MEAN_MOTION_DDOT":0},{"OBJECT_NAME":"GSAT0234 (GALILEO 34)","OBJECT_ID":"2025-302C","EPOCH":"2026-04-24T13:27:31.000608","MEAN_MOTION":1.70474332,"ECCENTRICITY":0.00039067,"INCLINATION":54.3036,"RA_OF_ASC_NODE":103.6556,"ARG_OF_PERICENTER":293.1512,"MEAN_ANOMALY":251.5938,"EPHEMERIS_TYPE":0,"CLASSIFICATION_TYPE":"U","NORAD_CAT_ID":67162,"ELEMENT_SET_NO":999,"REV_AT_EPOCH":226,"BSTAR":0,"MEAN_MOTION_DOT":4.3e-7,"MEAN_MOTION_DDOT":0}]
